LEMUR-2-TINYKEV         
1 43883U 18111H   22046.74888181  .00002929  00000+0  25068-3 0  9992
2 43883  97.6803 316.4184 0011427  14.8836 345.2720 14.98314881171541
LEMUR-2-REMY-COLTON     
1 43884U 18111J   22047.47301927  .00003016  00000+0  25657-3 0  9994
2 43884  97.6828 317.4881 0011233   8.7106 351.4309 14.98537100169675
LEMUR-2-GUSTAVO         
1 43885U 18111K   22046.73505380  .00002471  00000+0  21251-3 0  9992
2 43885  97.6817 316.5545 0011360   8.9052 351.2370 14.98279294171546
LEMUR-2-ZO              
1 43886U 18111L   22046.73482303  .00002504  00000+0  21475-3 0  9997
2 43886  97.6827 316.7912 0011267   7.5932 352.5459 14.98371446171551
LEMUR-2-NATALIEMURRAY   
1 43887U 18111M   22046.71054692  .00002426  00000+0  20739-3 0  9997
2 43887  97.6862 317.0114 0011971  11.9481 348.2023 14.98515027171564
LEMUR-2-SARAHBETTYBOO   
1 43888U 18111N   22046.74195847  .00002646  00000+0  22574-3 0  9992
2 43888  97.6843 317.2468 0011113   5.6955 354.4392 14.98530904171572
LEMUR-2-DAISY-HARPER    
1 43889U 18111P   22046.74671024  .00002548  00000+0  21715-3 0  9996
2 43889  97.6848 317.4110 0010992   6.4291 353.7071 14.98598612171576
LEMUR-2-JOHANLORAN      
1 44084U 19018G   22046.75046376  .00011307  00000+0  39636-3 0  9992
2 44084  97.3334 109.7700 0011686 175.8896 184.2442 15.29555205160147
LEMUR-2-BEAUDACIOUS     
1 44085U 19018H   22047.11606981  .00011345  00000+0  40981-3 0  9995
2 44085  97.3323 109.5464 0011786 177.9297 182.1994 15.28570236160150
LEMUR-2-ELHAM           
1 44086U 19018J   22047.17062149  .00008804  00000+0  30979-3 0  9996
2 44086  97.3350 110.5467 0011675 175.1408 184.9948 15.29503406160219
LEMUR-2-VICTOR-ANDREW   
1 44087U 19018K   22047.17349254  .00011854  00000+0  41080-3 0  9996
2 44087  97.3355 110.7135 0011657 175.1069 185.0288 15.29917513160231
LEMUR-2-LILLYJO         
1 44396U 19038L   22047.18732379  .00006095  00000+0  31698-3 0  9991
2 44396  97.6090  15.9317 0022686 180.7494 179.3709 15.16212200144681
LEMUR-2-WANLI           
1 44402U 19038S   22047.14462806  .00004702  00000+0  24859-3 0  9994
2 44402  97.6103  15.7731 0022872 182.2883 177.8249 15.15748637144676
LEMUR-2-MORAG           
1 44403U 19038T   22047.16015130  .00004975  00000+0  25917-3 0  9999
2 44403  97.6141  16.4931 0021469 184.2928 175.8123 15.16273793144690
LEMUR-2-DUSTINTHEWIND   
1 44405U 19038V   22047.46314301  .00005642  00000+0  29845-3 0  9992
2 44405  97.6096  15.9952 0022755 180.5955 179.5254 15.15642501144722
LEMUR-2-ALEX-MADDY      
1 44407U 19038X   22047.37353415  .00004158  00000+0  22637-3 0  9996
2 44407  97.6171  16.0149 0021874 187.3394 172.7521 15.14795973144667
LEMUR-2-EJATTA          
1 44409U 19038Z   22047.45246923  .00006907  00000+0  35581-3 0  9998
2 44409  97.6084  16.4094 0022424 177.9684 182.1643 15.16502145144753
LEMUR-2-GREGROBINSON    
1 44411U 19038AB  22047.47214679  .00005068  00000+0  26456-3 0  9994
2 44411  97.6150  16.8022 0021440 185.1228 174.9789 15.16186945144405
LEMUR-2-YNDRD           
1 44413U 19038AD  22046.85236941  .00004420  00000+0  24125-3 0  9995
2 44413  97.6156  15.3631 0021716 189.2318 170.8517 15.14676835144598
LEMUR-2-JPGSQUARED      
1 44855U 19089D   22047.49816821  .00004597  00000+0  36104-3 0  9998
2 44855  36.9658  96.3931 0005850 307.2387  52.7821 15.00803775119826
LEMUR-2-HIMOMANDDAD     
1 44860U 19089J   22046.85712136  .00003656  00000+0  28935-3 0  9995
2 44860  36.9658 101.4344 0006152 296.8391  63.1722 15.00678479119593
LEMUR-2-PAPPY           
1 44861U 19089K   22046.83705448  .00003656  00000+0  28935-3 0  9992
2 44861  36.9657 101.2660 0006232 298.7661  61.2455 15.00676339119654
LEMUR-2-THEODOSIA       
1 44863U 19089M   22047.47146005  .00004077  00000+0  32143-3 0  9997
2 44863  36.9652  97.0640 0006132 306.0099  54.0074 15.00734647119663
LEMUR-2-ETHANOAKES      
1 46298U 20061AC  22046.70963242  .00006092  00000+0  34011-3 0  9993
2 46298  97.4645 120.5545 0000371 143.3826 216.7431 15.13894593 80073
LEMUR-2-OSCARLATOR      
1 46299U 20061AD  22046.71841517  .00006386  00000+0  35621-3 0  9999
2 46299  97.4650 120.5625 0000476 127.9089 232.2186 15.13904774 80101
LEMUR-2-SCHMIDTFALL     
1 46315U 20061AV  22046.77229552  .00005908  00000+0  32586-3 0  9999
2 46315  97.4654 120.9683 0001824 193.3980 166.7204 15.14336657 80176
LEMUR-2-DJUPROERA       
1 46316U 20061AW  22047.14454883  .00007336  00000+0  40145-3 0  9996
2 46316  97.4643 121.3534 0001957 195.4016 164.7156 15.14540443 80236
LEMUR-2-SQUAREJAWS      
1 46317U 20061AX  22046.75633580  .00007682  00000+0  42091-3 0  9992
2 46317  97.4646 120.9641 0001881 194.2386 165.8793 15.14476730 80187
LEMUR-2-URSA-AVION      
1 46318U 20061AY  22046.74863683  .00007588  00000+0  41608-3 0  9999
2 46318  97.4646 120.9713 0002080 190.5308 169.5880 15.14452679 80187
LEMUR-2-SLICERS         
1 46500U 20068Q   22046.78464270  .00006038  00000+0  44430-3 0  9997
2 46500  97.7096 347.4980 0013844 350.3220   9.7737 15.03679579 75811
LEMUR-2-DAYWZAGOODDAY   
1 46501U 20068R   22046.82319969  .00006536  00000+0  47589-3 0  9998
2 46501  97.7106 347.6186 0013028 355.3355   4.7745 15.04056263 75816
LEMUR-2-SUSURRUS        
1 46502U 20068S   22046.78533357  .00005776  00000+0  42492-3 0  9996
2 46502  97.7104 347.4939 0013637 354.0662   6.0400 15.03709917 75815
LEMUR-2-NICHOL          
1 46503U 20068T   22046.81529053  .00005972  00000+0  43784-3 0  9992
2 46503  97.7136 347.4461 0012904   2.5384 357.5905 15.03833997 75813
LEMUR-2-OZARAK          
1 46908U 20081D   22046.88336883  .00003136  00000+0  25225-3 0  9990
2 46908  36.9038 225.4852 0005421 159.0419 201.0544 15.00182307 69892
LEMUR-2-JINDRA          
1 46909U 20081E   22047.57370618  .00003611  00000+0  28754-3 0  9990
2 46909  36.9039 220.8196 0005459 168.6966 191.3892 15.00439156 70018
LEMUR-2-WALLACE         
1 46910U 20081F   22046.84325050  .00003439  00000+0  27460-3 0  9992
2 46910  36.9036 225.1646 0005624 161.5866 198.5079 15.00377188 69896
LEMUR-2-JEREMIAH        
1 46911U 20081G   22046.88977256  .00003486  00000+0  27755-3 0  9997
2 46911  36.9034 224.6175 0005571 168.8688 191.2176 15.00471772 69914
LEMUR-2-NEVA            
1 47450U 21006AP  22046.71102802  .00005372  00000+0  29278-3 0  9991
2 47450  97.4636 108.6468 0010749 348.4585  11.6399 15.14762814 58852
LEMUR-2-SAOIRSEDH5GUO   
1 47453U 21006AS  22046.71201665  .00005895  00000+0  32231-3 0  9994
2 47453  97.4662 108.6450 0009586 351.5858   8.5212 15.14617405 58843
LEMUR-2-NALLYWACKER     
1 47457U 21006AW  22046.72550896  .00005578  00000+0  30347-3 0  9996
2 47457  97.4634 108.6471 0010563 348.7878  11.3117 15.14812125 58859
LEMUR-2-MANGO1          
1 47493U 21006CJ  22046.72900895  .00004153  00000+0  23039-3 0  9992
2 47493  97.4580 108.1924 0009992 351.2805   8.8252 15.14265858 58845
LEMUR-2-RUAIRI-EILIDH   
1 47511U 21006DC  22046.72790169  .00004620  00000+0  25890-3 0  9990
2 47511  97.4576 107.8828 0007751 357.3107   2.8082 15.13864766 58828
LEMUR-2-JENNIFERSONG    
1 47525U 21006DR  22046.71780928  .00005650  00000+0  30749-3 0  9999
2 47525  97.4592 108.4357 0010623 348.7395  11.3598 15.14795139 58858
LEMUR-2-CHANTAL         
1 47529U 21006DV  22046.72854155  .00004525  00000+0  25646-3 0  9998
2 47529  97.4584 107.8015 0007162 359.7400   0.3826 15.13468228 59779
LEMUR-2-NOOBNOOB        
1 47538U 21006DY  22047.42404859  .00004537  00000+0  25000-3 0  9995
2 47538  97.4645 109.3234 0010275 347.7486  12.3494 15.14460382 58954
LEMUR-2-AMANDA-SVANTE   
1 48269U 21034B   22046.78637799  .00001721  00000+0  20082-3 0  9994
2 48269  97.7617 120.9469 0004839 111.8757 248.2973 14.86440012 43454
LEMUR-2-SPECIAL-K       
1 48273U 21034F   22047.19597467  .00001898  00000+0  22099-3 0  9997
2 48273  97.7618 121.3333 0004841 108.0030 252.1713 14.86411101 43521
LEMUR-2-JACKSON         
1 48885U 21059G   22047.32469064  .00005752  00000+0  32112-3 0  9999
2 48885  97.5351 177.9706 0008794 154.6953 205.4711 15.13894064 35608
LEMUR-2-ANNABANANA      
1 48923U 21059AW  22046.92318133  .00007067  00000+0  38305-3 0  9998
2 48923  97.5291 177.7225 0012759 148.3349 211.8653 15.14831958 35568
LEMUR-2-JOHN-TREIRES    
1 48925U 21059AY  22046.85737378  .00007279  00000+0  38919-3 0  9994
2 48925  97.5338 177.9258 0015233 152.3808 207.8236 15.15274967 35569
LEMUR-2-AC-CUBED        
1 48927U 21059BA  22047.35891048  .00006891  00000+0  36795-3 0  9996
2 48927  97.5322 178.4158 0017653 153.6237 206.5897 15.15311064 35645
LEMUR-2-MERIMA          
1 48929U 21059BC  22046.87667899  .00007405  00000+0  39201-3 0  9996
2 48929  97.5295 177.9214 0017412 156.3100 203.8937 15.15593498 35575
LEMUR-2-CARLSANTAMARI   
1 48959U 21059CJ  22047.08053642  .00007767  00000+0  40528-3 0  9993
2 48959  97.5311 178.3015 0016709 160.2308 199.9576 15.16098040 35616
LEMUR-2-RAMONAMAE       
1 51021U 22002AP  22046.90074386  .00003879  00000+0  22659-3 0  9999
2 51021  97.5038 116.0159 0010876 130.1125 230.1061 15.12447455  5030
LEMUR-2-KING-JULIEN     
1 51022U 22002AQ  22046.90100266  .00003853  00000+0  22525-3 0  9991
2 51022  97.5017 116.0051 0010658 128.1000 232.1193 15.12423363  5036
LEMUR-2-ROHOVITHSA      
1 51036U 22002BE  22046.90198866  .00002962  00000+0  17446-3 0  9995
2 51036  97.5047 116.0198 0010972 130.2052 230.0141 15.12335295  5032
LEMUR-2-MIRIWARI        
1 51054U 22002BY  22046.90321685  .00003330  00000+0  19585-3 0  9998
2 51054  97.5038 116.0145 0010156 127.8979 232.3171 15.12309141  5037
LEMUR-2-DJIRANG         
1 51058U 22002CC  22046.77195359  .00004469  00000+0  26183-3 0  9990
2 51058  97.5021 115.8733 0010057 126.0012 234.2153 15.12262596  5013
LEMUR-2-KRYWE           
1 51099U 22003F   22047.24075417  .00012069  00000+0  50324-3 0  9990
2 51099  44.9879  10.0629 0003649   9.9270 350.1656 15.23781479  5079
